{"type": "FeatureCollection", "features": [{"type": "Feature", "properties": {"norad_id": 36828, "name": "BEIDOU-2 IGSO-1 (C06)", "group": "beidou", "lat": -54.1808923058113, "lon": 71.39511729805528, "alt_km": 35658.480636815424, "timestamp": "2025-12-18T15:47:11.487988+00:00", "meta": {"OBJECT_NAME": "BEIDOU-2 IGSO-1 (C06)", "OBJECT_ID": "2010-036A", "EPOCH": "2025-12-14T21:38:21.623424", "MEAN_MOTION": 1.00275796, "ECCENTRICITY": 0.00512569, "INCLINATION": 54.2866, "RA_OF_ASC_NODE": 164.6279, "ARG_OF_PERICENTER": 215.8888, "MEAN_ANOMALY": 135.7931, "EPHEMERIS_TYPE": 0, "CLASSIFICATION_TYPE": "U", "NORAD_CAT_ID": 36828, "ELEMENT_SET_NO": 999, "REV_AT_EPOCH": 5624, "BSTAR": 0, "MEAN_MOTION_DOT": -2.4e-07, "MEAN_MOTION_DDOT": 0}, "tle": {"line1": "1 36828U 10036A   25348.90163916 -.00000024  00000+0  00000+0 0  9999", "line2": "2 36828  54.2866 164.6279 0051256 215.8888 135.7931  1.00275796 56247"}}, "geometry": {"type": "Point", "coordinates": [71.39511729805528, -54.1808923058113]}}, {"type": "Feature", "properties": {"norad_id": 37210, "name": "BEIDOU-2 G4 (C04)", "group": "beidou", "lat": 2.620220780633681, "lon": 124.2653022513091, "alt_km": 35818.69557663203, "timestamp": "2025-12-18T15:47:11.488012+00:00", "meta": {"OBJECT_NAME": "BEIDOU-2 G4 (C04)", "OBJECT_ID": "2010-057A", "EPOCH": "2025-12-18T05:29:48.091776", "MEAN_MOTION": 1.00272036, "ECCENTRICITY": 0.00104836, "INCLINATION": 3.1978, "RA_OF_ASC_NODE": 69.919, "ARG_OF_PERICENTER": 192.3897, "MEAN_ANOMALY": 67.3167, "EPHEMERIS_TYPE": 0, "CLASSIFICATION_TYPE": "U", "NORAD_CAT_ID": 37210, "ELEMENT_SET_NO": 999, "REV_AT_EPOCH": 5547, "BSTAR": 0, "MEAN_MOTION_DOT": -8.9e-07, "MEAN_MOTION_DDOT": 0}, "tle": {"line1": "1 37210U 10057A   25352.22902884 -.00000089  00000+0  00000+0 0  9994", "line2": "2 37210   3.1978  69.9190 0010483 192.3897  67.3167  1.00272036 55474"}}, "geometry": {"type": "Point", "coordinates": [124.2653022513091, 2.620220780633681]}}, {"type": "Feature", "properties": {"norad_id": 37256, "name": "BEIDOU-2 IGSO-2 (C07)", "group": "beidou", "lat": 16.416009025911183, "lon": 78.62711488171375, "alt_km": 35674.023295205036, "timestamp": "2025-12-18T15:47:11.488062+00:00", "meta": {"OBJECT_NAME": "BEIDOU-2 IGSO-2 (C07)", "OBJECT_ID": "2010-068A", "EPOCH": "2025-12-17T17:15:44.928000", "MEAN_MOTION": 1.00285242, "ECCENTRICITY": 0.00482968, "INCLINATION": 47.8766, "RA_OF_ASC_NODE": 274.0874, "ARG_OF_PERICENTER": 216.3076, "MEAN_ANOMALY": 322.9541, "EPHEMERIS_TYPE": 0, "CLASSIFICATION_TYPE": "U", "NORAD_CAT_ID": 37256, "ELEMENT_SET_NO": 999, "REV_AT_EPOCH": 5497, "BSTAR": 0, "MEAN_MOTION_DOT": -2.07e-06, "MEAN_MOTION_DDOT": 0}, "tle": {"line1": "1 37256U 10068A   25351.71927000 -.00000207  00000+0  00000+0 0  9998", "line2": "2 37256  47.8766 274.0874 0048296 216.3076 322.9541  1.00285242 54974"}}, "geometry": {"type": "Point", "coordinates": [78.62711488171375, 16.416009025911183]}}, {"type": "Feature", "properties": {"norad_id": 37384, "name": "BEIDOU-2 IGSO-3 (C08)", "group": "beidou", "lat": 25.92312827225629, "lon": 56.77157259656156, "alt_km": 35922.914095693275, "timestamp": "2025-12-18T15:47:11.488100+00:00", "meta": {"OBJECT_NAME": "BEIDOU-2 IGSO-3 (C08)", "OBJECT_ID": "2011-013A", "EPOCH": "2025-12-17T16:16:10.103808", "MEAN_MOTION": 1.00269735, "ECCENTRICITY": 0.00353562, "INCLINATION": 62.15, "RA_OF_ASC_NODE": 41.8689, "ARG_OF_PERICENTER": 187.938, "MEAN_ANOMALY": 208.2285, "EPHEMERIS_TYPE": 0, "CLASSIFICATION_TYPE": "U", "NORAD_CAT_ID": 37384, "ELEMENT_SET_NO": 999, "REV_AT_EPOCH": 5384, "BSTAR": 0, "MEAN_MOTION_DOT": -1.79e-06, "MEAN_MOTION_DDOT": 0}, "tle": {"line1": "1 37384U 11013A   25351.67789472 -.00000179  00000+0  00000+0 0  9993", "line2": "2 37384  62.1500  41.8689 0035356 187.9380 208.2285  1.00269735 53845"}}, "geometry": {"type": "Point", "coordinates": [56.77157259656156, 25.92312827225629]}}, {"type": "Feature", "properties": {"norad_id": 37763, "name": "BEIDOU-2 IGSO-4 (C09)", "group": "beidou", "lat": -50.850695456681905, "lon": 48.396966813676116, "alt_km": 35204.449552324346, "timestamp": "2025-12-18T15:47:11.488118+00:00", "meta": {"OBJECT_NAME": "BEIDOU-2 IGSO-4 (C09)", "OBJECT_ID": "2011-038A", "EPOCH": "2025-12-17T23:29:21.564384", "MEAN_MOTION": 1.00281312, "ECCENTRICITY": 0.01493143, "INCLINATION": 54.5836, "RA_OF_ASC_NODE": 167.2999, "ARG_OF_PERICENTER": 230.2426, "MEAN_ANOMALY": 136.1954, "EPHEMERIS_TYPE": 0, "CLASSIFICATION_TYPE": "U", "NORAD_CAT_ID": 37763, "ELEMENT_SET_NO": 999, "REV_AT_EPOCH": 5283, "BSTAR": 0, "MEAN_MOTION_DOT": 6.5e-07, "MEAN_MOTION_DDOT": 0}, "tle": {"line1": "1 37763U 11038A   25351.97872181  .00000065  00000+0  00000+0 0  9997", "line2": "2 37763  54.5836 167.2999 0149314 230.2426 136.1954  1.00281312 52838"}}, "geometry": {"type": "Point", "coordinates": [48.396966813676116, -50.850695456681905]}}, {"type": "Feature", "properties": {"norad_id": 37948, "name": "BEIDOU-2 IGSO-5 (C10)", "group": "beidou", "lat": 26.85025521822194, "lon": 66.70410918628819, "alt_km": 35689.80464544325, "timestamp": "2025-12-18T15:47:11.488132+00:00", "meta": {"OBJECT_NAME": "BEIDOU-2 IGSO-5 (C10)", "OBJECT_ID": "2011-073A", "EPOCH": "2025-12-17T16:24:35.912736", "MEAN_MOTION": 1.00290385, "ECCENTRICITY": 0.01100136, "INCLINATION": 48.0109, "RA_OF_ASC_NODE": 273.7976, "ARG_OF_PERICENTER": 222.3587, "MEAN_ANOMALY": 289.8191, "EPHEMERIS_TYPE": 0, "CLASSIFICATION_TYPE": "U", "NORAD_CAT_ID": 37948, "ELEMENT_SET_NO": 999, "REV_AT_EPOCH": 5131, "BSTAR": 0, "MEAN_MOTION_DOT": -1.81e-06, "MEAN_MOTION_DDOT": 0}, "tle": {"line1": "1 37948U 11073A   25351.68374899 -.00000181  00000+0  00000+0 0  9992", "line2": "2 37948  48.0109 273.7976 0110013 222.3587 289.8191  1.00290385 51317"}}, "geometry": {"type": "Point", "coordinates": [66.70410918628819, 26.85025521822194]}}, {"type": "Feature", "properties": {"norad_id": 38091, "name": "BEIDOU-2 G5 (C05)", "group": "beidou", "lat": -2.2872012423466668, "lon": 23.290239137499203, "alt_km": 35779.43618551572, "timestamp": "2025-12-18T15:47:11.488145+00:00", "meta": {"OBJECT_NAME": "BEIDOU-2 G5 (C05)", "OBJECT_ID": "2012-008A", "EPOCH": "2025-12-18T01:35:25.082592", "MEAN_MOTION": 1.00268084, "ECCENTRICITY": 0.00129788, "INCLINATION": 3.1222, "RA_OF_ASC_NODE": 70.6932, "ARG_OF_PERICENTER": 231.0982, "MEAN_ANOMALY": 227.7978, "EPHEMERIS_TYPE": 0, "CLASSIFICATION_TYPE": "U", "NORAD_CAT_ID": 38091, "ELEMENT_SET_NO": 999, "REV_AT_EPOCH": 5055, "BSTAR": 0, "MEAN_MOTION_DOT": 7.9e-07, "MEAN_MOTION_DDOT": 0}, "tle": {"line1": "1 38091U 12008A   25352.06626253  .00000079  00000+0  00000+0 0  9993", "line2": "2 38091   3.1222  70.6932 0012978 231.0982 227.7978  1.00268084 50558"}}, "geometry": {"type": "Point", "coordinates": [23.290239137499203, -2.2872012423466668]}}, {"type": "Feature", "properties": {"norad_id": 38250, "name": "BEIDOU-2 M3 (C11)", "group": "beidou", "lat": -53.457394864175804, "lon": -114.98318429497402, "alt_km": 21467.034403839156, "timestamp": "2025-12-18T15:47:11.488157+00:00", "meta": {"OBJECT_NAME": "BEIDOU-2 M3 (C11)", "OBJECT_ID": "2012-018A", "EPOCH": "2025-12-17T03:50:10.506912", "MEAN_MOTION": 1.86229968, "ECCENTRICITY": 0.00242614, "INCLINATION": 55.9161, "RA_OF_ASC_NODE": 311.0085, "ARG_OF_PERICENTER": 274.7282, "MEAN_ANOMALY": 84.9799, "EPHEMERIS_TYPE": 0, "CLASSIFICATION_TYPE": "U", "NORAD_CAT_ID": 38250, "ELEMENT_SET_NO": 999, "REV_AT_EPOCH": 9255, "BSTAR": 0, "MEAN_MOTION_DOT": -9.2e-07, "MEAN_MOTION_DDOT": 0}, "tle": {"line1": "1 38250U 12018A   25351.15984383 -.00000092  00000+0  00000+0 0  9997", "line2": "2 38250  55.9161 311.0085 0024261 274.7282  84.9799  1.86229968 92550"}}, "geometry": {"type": "Point", "coordinates": [-114.98318429497402, -53.457394864175804]}}, {"type": "Feature", "properties": {"norad_id": 38251, "name": "BEIDOU-2 M4 (C12)", "group": "beidou", "lat": -24.598448414473864, "lon": -67.95046615511043, "alt_km": 21504.52007040245, "timestamp": "2025-12-18T15:47:11.488168+00:00", "meta": {"OBJECT_NAME": "BEIDOU-2 M4 (C12)", "OBJECT_ID": "2012-018B", "EPOCH": "2025-12-18T03:58:46.977600", "MEAN_MOTION": 1.86229645, "ECCENTRICITY": 0.00154499, "INCLINATION": 55.8165, "RA_OF_ASC_NODE": 310.203, "ARG_OF_PERICENTER": 278.2427, "MEAN_ANOMALY": 81.5679, "EPHEMERIS_TYPE": 0, "CLASSIFICATION_TYPE": "U", "NORAD_CAT_ID": 38251, "ELEMENT_SET_NO": 999, "REV_AT_EPOCH": 9257, "BSTAR": 0, "MEAN_MOTION_DOT": -8.6e-07, "MEAN_MOTION_DDOT": 0}, "tle": {"line1": "1 38251U 12018B   25352.16582150 -.00000086  00000+0  00000+0 0  9999", "line2": "2 38251  55.8165 310.2030 0015449 278.2427  81.5679  1.86229645 92577"}}, "geometry": {"type": "Point", "coordinates": [-67.95046615511043, -24.598448414473864]}}, {"type": "Feature", "properties": {"norad_id": 38775, "name": "BEIDOU-2 M6 (C14)", "group": "beidou", "lat": 13.539789584880845, "lon": -120.31879499727226, "alt_km": 21558.27620725358, "timestamp": "2025-12-18T15:47:11.488180+00:00", "meta": {"OBJECT_NAME": "BEIDOU-2 M6 (C14)", "OBJECT_ID": "2012-050B", "EPOCH": "2025-12-16T19:16:00.374304", "MEAN_MOTION": 1.86230897, "ECCENTRICITY": 0.00113573, "INCLINATION": 56.3818, "RA_OF_ASC_NODE": 68.9326, "ARG_OF_PERICENTER": 343.3915, "MEAN_ANOMALY": 16.5942, "EPHEMERIS_TYPE": 0, "CLASSIFICATION_TYPE": "U", "NORAD_CAT_ID": 38775, "ELEMENT_SET_NO": 999, "REV_AT_EPOCH": 8991, "BSTAR": 0, "MEAN_MOTION_DOT": -7.7e-07, "MEAN_MOTION_DDOT": 0}, "tle": {"line1": "1 38775U 12050B   25350.80278211 -.00000077  00000+0  00000+0 0  9995", "line2": "2 38775  56.3818  68.9326 0011357 343.3915  16.5942  1.86230897 89910"}}, "geometry": {"type": "Point", "coordinates": [-120.31879499727226, 13.539789584880845]}}]}